GLOBALSTAR M067         
1 32263U 07048A   25344.46777035 -.00000081  00000+0  12161-3 0  9995
2 32263  51.9722 240.1160 0001763  28.7739 142.2108 12.40682657831361
GLOBALSTAR M070         
1 32264U 07048B   25344.33461030 -.00000073  00000+0  17003-3 0  9998
2 32264  51.9766 311.8820 0000315  72.6359  92.8322 12.62327102835915
GLOBALSTAR M066         
1 32265U 07048C   25344.46859872 -.00000083  00000+0  10154-3 0  9999
2 32265  51.9585 239.6696 0005470  16.6347 154.3564 12.30382857836999
GLOBALSTAR M068         
1 32266U 07048D   25344.32330440 -.00000059  00000+0  24698-3 0  9991
2 32266  51.9869 125.3278 0001828 135.8529 227.3148 12.62835028839812
GLOBALSTAR M079         
1 37188U 10054A   25344.38119729 -.00000080  00000+0  13211-3 0  9994
2 37188  52.0056 323.4238 0000426  13.3547 138.2191 12.62269083698701
GLOBALSTAR M074         
1 37189U 10054B   25344.32607984 -.00000087  00000+0  94171-4 0  9996
2 37189  52.0035 322.8867 0000529  53.6919  87.0422 12.62264005699308
GLOBALSTAR M076         
1 37190U 10054C   25344.43857877 -.00000084  00000+0  11298-3 0  9993
2 37190  52.0047 322.7326 0000591  35.8309 135.1776 12.62267941699035
GLOBALSTAR M077         
1 37191U 10054D   25344.35173860 -.00000064  00000+0  25567-3 0  9990
2 37191  52.0110 298.9761 0000743  13.2306 156.0377 11.68138688699073
